      2.10          N: GNSS NAV DATA                        RINEX VERSION / TYPE
fic2rin                                 04/27/2021 00:17:16 PGM / RUN BY / DATE
                                                            END OF HEADER
22 21  4 26 20  0  0.0-6.286543793976e-04 8.981260180008e-12 0.000000000000e+00
    5.900000000000e+01 5.718750000000e+01 5.588804224700e-09 2.208712479912e+00
    2.983957529068e-06 7.064552162774e-03 4.999339580536e-06 5.153543859482e+03
    1.584000000000e+05 1.024454832077e-07-1.996400374272e+00-1.862645149231e-09
    9.341957071495e-01 2.645312500000e+02-9.882521818130e-01-8.613573075607e-09
    3.264421690552e-10 1.000000000000e+00 2.155000000000e+03 0.000000000000e+00
    2.400000000000e+00 0.000000000000e+00-1.769512891769e-08 5.900000000000e+01
    1.512000000000e+05 4.000000000000e+00
32 21  4 26 20  0  0.0 2.195080742240e-05-2.273736754432e-13 0.000000000000e+00
    7.100000000000e+01-6.503125000000e+01 4.576619205989e-09-2.372431499878e+00
   -3.317371010780e-06 4.889730247669e-03 9.061768651009e-06 5.153662515640e+03
    1.584000000000e+05 2.607703208923e-08-8.577325311113e-01-3.725290298462e-08
    9.571723965180e-01 2.024687500000e+02-2.378963326697e+00-8.046763751438e-09
   -6.593131773260e-10 1.000000000000e+00 2.155000000000e+03 0.000000000000e+00
    2.400000000000e+00 0.000000000000e+00 4.656612873077e-10 7.100000000000e+01
    1.512000000000e+05 4.000000000000e+00
21 21  4 26 20  0  0.0 1.139021478593e-04 2.728484105319e-12 0.000000000000e+00
    7.500000000000e+01-3.478125000000e+01 4.145529820814e-09-2.921418622846e+00
   -1.527369022369e-06 2.412368950900e-02 1.494772732258e-05 5.153706514359e+03
    1.584000000000e+05 1.620501279831e-07-3.018441378931e+00 4.060566425323e-07
    9.572343437841e-01 8.062500000000e+01-1.148304293746e+00-7.443881496115e-09
    3.364425856127e-10 1.000000000000e+00 2.155000000000e+03 0.000000000000e+00
    2.400000000000e+00 0.000000000000e+00-1.024454832077e-08 7.500000000000e+01
    1.512000000000e+05 4.000000000000e+00
13 21  4 26 20  0  0.0 1.247311010957e-04 4.661160346586e-12 0.000000000000e+00
    6.200000000000e+01-5.225000000000e+01 4.214818421248e-09 2.611571119517e+00
   -2.704560756683e-06 4.925409564748e-03 9.952113032341e-06 5.153682502747e+03
    1.584000000000e+05 3.166496753693e-08-7.194815470772e-01-2.421438694000e-08
    9.681414864761e-01 1.915000000000e+02 9.817279943515e-01-7.874256565821e-09
   -5.878816304868e-10 1.000000000000e+00 2.155000000000e+03 0.000000000000e+00
    2.400000000000e+00 0.000000000000e+00-1.117587089539e-08 6.200000000000e+01
    1.512000000000e+05 4.000000000000e+00
26 21  4 26 20  0  0.0 7.748603820801e-05 5.115907697473e-12 0.000000000000e+00
    7.700000000000e+01 8.700000000000e+01 5.457013020782e-09-1.334013689082e+00
    4.349276423454e-06 5.800980259664e-03 1.335516571999e-06 5.153791996002e+03
    1.584000000000e+05 4.656612873077e-08 1.200186028040e+00-1.322478055954e-07
    9.420923326700e-01 3.390625000000e+02 3.035417617213e-01-8.907871048585e-09
    4.868059917093e-10 1.000000000000e+00 2.155000000000e+03 0.000000000000e+00
    2.400000000000e+00 0.000000000000e+00 6.984919309616e-09 7.700000000000e+01
    1.512000000000e+05 4.000000000000e+00
28 21  4 26 20  0  0.0 5.806833505630e-04-5.798028723802e-12 0.000000000000e+00
    8.900000000000e+01 5.659375000000e+01 4.623049711434e-09-2.437187943163e+00
    3.168359398842e-06 1.747236913070e-02 8.326023817062e-07 5.154310897827e+03
    1.584000000000e+05 1.247972249985e-07 1.337210181177e+00 2.365559339523e-07
    9.728899561775e-01 3.642187500000e+02-1.339238243528e+00-8.199627261674e-09
    3.939449808183e-10 1.000000000000e+00 2.155000000000e+03 0.000000000000e+00
    2.400000000000e+00 0.000000000000e+00-1.117587089539e-08 8.900000000000e+01
    1.512000000000e+05 4.000000000000e+00
17 21  4 26 20  0  0.0 4.328317008913e-04 6.252776074689e-12 0.000000000000e+00
    4.700000000000e+01-1.398437500000e+02 4.214818421248e-09-3.103543963978e+00
   -7.065013051033e-06 1.333682704717e-02 6.744638085365e-06 5.153586629868e+03
    1.584000000000e+05 2.700835466385e-07 2.351304434890e+00-2.235174179077e-08
    9.823123101649e-01 2.580312500000e+02-1.569677532398e+00-7.855684363643e-09
   -4.550189533658e-10 1.000000000000e+00 2.155000000000e+03 0.000000000000e+00
    2.400000000000e+00 0.000000000000e+00-1.117587089539e-08 4.700000000000e+01
    1.512000000000e+05 4.000000000000e+00
19 21  4 26 20  0  0.0-7.751397788525e-06 5.002220859751e-12 0.000000000000e+00
    9.500000000000e+01-1.265937500000e+02 4.236247885300e-09-6.030883409816e-01
   -6.571412086487e-06 9.226126829162e-03 7.955357432365e-06 5.153630798340e+03
    1.584000000000e+05-1.192092895508e-07 2.396495664029e+00-5.774199962616e-08
    9.808485099460e-01 2.386250000000e+02 1.816826887458e+00-8.189626845116e-09
   -3.978737158944e-10 1.000000000000e+00 2.155000000000e+03 0.000000000000e+00
    2.400000000000e+00 0.000000000000e+00-1.536682248116e-08 9.500000000000e+01
    1.512000000000e+05 4.000000000000e+00
14 21  4 26 20  0  0.0 9.268196299672e-05-3.751665644813e-12 0.000000000000e+00
    1.620000000000e+02 6.640625000000e+01 5.093069289636e-09 1.542457886134e-01
    3.470107913017e-06 6.077709840611e-04 1.594424247742e-06 5.153745996475e+03
    1.584000000000e+05-3.539025783539e-08 1.288184757860e+00 4.097819328308e-08
    9.572388364055e-01 3.453750000000e+02 2.545586894438e+00-8.671432628547e-09
    3.650152043484e-10 1.000000000000e+00 2.155000000000e+03 0.000000000000e+00
    2.400000000000e+00 0.000000000000e+00-7.916241884232e-09 1.620000000000e+02
    1.512000000000e+05 4.000000000000e+00
20 21  4 26 20  0  0.0 5.227806977928e-04-3.410605131648e-13 0.000000000000e+00
    1.040000000000e+02 5.506250000000e+01 5.572732126661e-09 9.102825775860e-01
    2.881512045860e-06 6.047132657841e-03 4.865229129791e-06 5.151697200775e+03
    1.584000000000e+05 1.471489667892e-07-2.042845571438e+00 1.154839992523e-07
    9.375288036093e-01 2.719375000000e+02 3.025805114597e+00-8.727863550550e-09
    3.414427938915e-10 1.000000000000e+00 2.155000000000e+03 0.000000000000e+00
    2.400000000000e+00 0.000000000000e+00-8.381903171539e-09 1.040000000000e+02
    1.512000000000e+05 4.000000000000e+00
18 21  4 26 20  0  0.0 3.514052368701e-04-3.410605131648e-13 0.000000000000e+00
    1.300000000000e+01 2.625000000000e+00 4.111599836065e-09 1.240141116421e+00
    1.564621925354e-07 1.317927497439e-03 1.400709152222e-05 5.153676456451e+03
    1.584000000000e+05 0.000000000000e+00-2.923395200721e+00-7.450580596924e-09
    9.680731287030e-01 1.090000000000e+02 2.947445351581e+00-7.806039438590e-09
    3.071556514086e-10 1.000000000000e+00 2.155000000000e+03 0.000000000000e+00
    2.400000000000e+00 0.000000000000e+00-8.381903171539e-09 5.250000000000e+02
    1.512000000000e+05 4.000000000000e+00
23 21  4 26 20  0  0.0 1.110974699259e-04-2.501110429876e-12 0.000000000000e+00
    3.500000000000e+01 3.753125000000e+01 4.994136597264e-09 6.098126000454e-01
    1.732259988785e-06 1.129774376750e-03 4.706904292107e-06 5.153639661789e+03
    1.584000000000e+05 5.029141902924e-08-1.924184589234e+00-1.862645149231e-08
    9.634952791372e-01 2.913437500000e+02 2.571366223244e+00-8.425350949686e-09
    2.425101015191e-10 1.000000000000e+00 2.155000000000e+03 0.000000000000e+00
    2.400000000000e+00 0.000000000000e+00-8.381903171539e-09 8.030000000000e+02
    1.512000000000e+05 4.000000000000e+00
20 21  4 26 19 59 44.0 5.227816291153e-04-3.410605131648e-13 0.000000000000e+00
    1.100000000000e+01 5.506250000000e+01 5.572374968927e-09 9.079459858119e-01
    2.881512045860e-06 6.047132541426e-03 4.865229129791e-06 5.151697191238e+03
    1.583840000000e+05 1.471489667892e-07-2.042845439775e+00 1.154839992523e-07
    9.375287845913e-01 2.719375000000e+02 3.025805339886e+00-8.727863550550e-09
    3.414427938915e-10 1.000000000000e+00 2.155000000000e+03 0.000000000000e+00
    2.400000000000e+00 0.000000000000e+00-8.381903171539e-09 1.100000000000e+01
    1.535400000000e+05 4.000000000000e+00
 1 21  4 26 19 59 44.0 7.056850008667e-04-1.034550223267e-11 0.000000000000e+00
    1.000000000000e+00-1.603125000000e+01 3.817301863088e-09 1.000698628852e+00
   -5.383044481277e-07 1.076671667397e-02 1.439265906811e-05 5.153691537857e+03
    1.583840000000e+05-4.470348358154e-08-2.935581110828e+00 1.695007085800e-07
    9.843868874594e-01 1.163750000000e+02 8.326481717785e-01-7.754965882600e-09
    2.378670509746e-10 1.000000000000e+00 2.155000000000e+03 0.000000000000e+00
    2.400000000000e+00 0.000000000000e+00 5.122274160385e-09 1.000000000000e+00
    1.549800000000e+05 4.000000000000e+00
18 21  4 26 21 29 36.0 3.514029085636e-04-4.547473508865e-13 0.000000000000e+00
    1.400000000000e+01-1.687500000000e+00 4.249105563731e-09 2.026042675781e+00
    1.862645149231e-08 1.318098744377e-03 1.341849565506e-05 5.153672109604e+03
    1.637760000000e+05 1.490116119385e-08-2.923437364946e+00 4.470348358154e-08
    9.680748651868e-01 1.260312500000e+02 2.945676869414e+00-7.809968173666e-09
    3.443000557650e-10 1.000000000000e+00 2.155000000000e+03 0.000000000000e+00
    2.400000000000e+00 0.000000000000e+00-8.381903171539e-09 5.260000000000e+02
    1.566000000000e+05 4.000000000000e+00
 1 21  4 26 21 59 44.0 7.056100293994e-04-1.034550223267e-11 0.000000000000e+00
    5.000000000000e+00-2.046875000000e+01 3.756585048274e-09 2.050813214316e+00
   -1.121312379837e-06 1.076775742695e-02 1.507811248302e-05 5.153692619324e+03
    1.655840000000e+05-2.570450305939e-07-2.935637384898e+00-1.117587089539e-07
    9.843901468409e-01 1.012812500000e+02 8.326973360664e-01-7.513527254283e-09
    4.257320191617e-10 1.000000000000e+00 2.155000000000e+03 0.000000000000e+00
    2.400000000000e+00 0.000000000000e+00 5.122274160385e-09 5.000000000000e+00
    1.584000000000e+05 4.000000000000e+00
